[{"OBJECT_NAME":"STARLINK-30791","OBJECT_ID":"2023-167C","EPOCH":"2026-03-08T14:22:24.040704","MEAN_MOTION":15.26736371,"ECCENTRICITY":0.00013218,"INCLINATION":42.9987,"RA_OF_ASC_NODE":149.0936,"ARG_OF_PERICENTER":264.8741,"MEAN_ANOMALY":95.196,"EPHEMERIS_TYPE":0,"CLASSIFICATION_TYPE":"U","NORAD_CAT_ID":58177,"ELEMENT_SET_NO":999,"REV_AT_EPOCH":13082,"BSTAR":-6.3839658e-5,"MEAN_MOTION_DOT":-1.971e-5,"MEAN_MOTION_DDOT":0},{"OBJECT_NAME":"STRIX-4","OBJECT_ID":"2024-137A","EPOCH":"2026-03-09T15:41:49.501824","MEAN_MOTION":15.29026224,"ECCENTRICITY":0.00168396,"INCLINATION":43.0134,"RA_OF_ASC_NODE":129.8162,"ARG_OF_PERICENTER":5.2738,"MEAN_ANOMALY":354.8289,"EPHEMERIS_TYPE":0,"CLASSIFICATION_TYPE":"U","NORAD_CAT_ID":60352,"ELEMENT_SET_NO":999,"REV_AT_EPOCH":8876,"BSTAR":0.00071819834,"MEAN_MOTION_DOT":0.0002053,"MEAN_MOTION_DDOT":0}]
